ACS3                    
1 59588U 24077B   24159.66381980  .00000103  00000+0  15510-3 0  9995
2 59588  97.4065 230.0561 0021522 119.2502 241.0805 13.67683707  6102
